{
  "type": "FeatureCollection",
  "features": [
    {
      "type": "Feature",
      "properties": {
        "norad_id": 24946,
        "name": "IRIDIUM 33",
        "group": "iridium-33-debris",
        "lat": -82.73519529164263,
        "lon": -80.75693973551276,
        "alt_km": 779.451194379214,
        "timestamp": "2025-12-09T14:52:26.547221+00:00",
        "meta_object_name": "IRIDIUM 33",
        "meta_object_id": "1997-051C",
        "meta_epoch": "2025-12-09T06:57:17.894016",
        "meta_mean_motion": 14.35033739,
        "meta_eccentricity": 0.00066482,
        "meta_inclination": 86.387,
        "meta_ra_of_asc_node": 69.6697,
        "meta_arg_of_pericenter": 213.1217,
        "meta_mean_anomaly": 146.9564,
        "meta_ephemeris_type": 0,
        "meta_classification_type": "U",
        "meta_norad_cat_id": 24946,
        "meta_element_set_no": 999,
        "meta_rev_at_epoch": 47785,
        "meta_bstar": 0.00021762224,
        "meta_mean_motion_dot": 6.39e-06,
        "meta_mean_motion_ddot": 0,
        "tle_line1": "1 24946U 97051C   25343.28979044  .00000639  00000+0  21762-3 0  9995",
        "tle_line2": "2 24946  86.3870  69.6697 0006648 213.1217 146.9564 14.35033739477857"
      },
      "geometry": {
        "type": "Point",
        "coordinates": [
          -80.75693973551276,
          -82.73519529164263
        ]
      }
    },
    {
      "type": "Feature",
      "properties": {
        "norad_id": 33773,
        "name": "IRIDIUM 33 DEB",
        "group": "iridium-33-debris",
        "lat": 51.38634623623433,
        "lon": -122.60751309700915,
        "alt_km": 735.4197686800071,
        "timestamp": "2025-12-09T14:52:26.547252+00:00",
        "meta_object_name": "IRIDIUM 33 DEB",
        "meta_object_id": "1997-051L",
        "meta_epoch": "2025-12-09T05:57:40.209984",
        "meta_mean_motion": 14.43245897,
        "meta_eccentricity": 0.00121418,
        "meta_inclination": 86.4015,
        "meta_ra_of_asc_node": 62.0689,
        "meta_arg_of_pericenter": 156.7488,
        "meta_mean_anomaly": 203.4265,
        "meta_ephemeris_type": 0,
        "meta_classification_type": "U",
        "meta_norad_cat_id": 33773,
        "meta_element_set_no": 999,
        "meta_rev_at_epoch": 88297,
        "meta_bstar": 0.00056003571,
        "meta_mean_motion_dot": 1.905e-05,
        "meta_mean_motion_ddot": 0,
        "tle_line1": "1 33773U 97051L   25343.24838206  .00001905  00000+0  56004-3 0  9997",
        "tle_line2": "2 33773  86.4015  62.0689 0012141 156.7488 203.4265 14.43245897882971"
      },
      "geometry": {
        "type": "Point",
        "coordinates": [
          -122.60751309700915,
          51.38634623623433
        ]
      }
    },
    {
      "type": "Feature",
      "properties": {
        "norad_id": 33775,
        "name": "IRIDIUM 33 DEB",
        "group": "iridium-33-debris",
        "lat": -52.10454524520195,
        "lon": -124.42849631956891,
        "alt_km": 756.9972152936871,
        "timestamp": "2025-12-09T14:52:26.547283+00:00",
        "meta_object_name": "IRIDIUM 33 DEB",
        "meta_object_id": "1997-051N",
        "meta_epoch": "2025-12-09T05:44:15.430272",
        "meta_mean_motion": 14.41457602,
        "meta_eccentricity": 0.00138861,
        "meta_inclination": 86.364,
        "meta_ra_of_asc_node": 51.048,
        "meta_arg_of_pericenter": 165.4879,
        "meta_mean_anomaly": 252.3295,
        "meta_ephemeris_type": 0,
        "meta_classification_type": "U",
        "meta_norad_cat_id": 33775,
        "meta_element_set_no": 999,
        "meta_rev_at_epoch": 88090,
        "meta_bstar": 0.00059297093,
        "meta_mean_motion_dot": 1.944e-05,
        "meta_mean_motion_ddot": 0,
        "tle_line1": "1 33775U 97051N   25343.23906748  .00001944  00000+0  59297-3 0  9995",
        "tle_line2": "2 33775  86.3640  51.0480 0013886 165.4879 252.3295 14.41457602880905"
      },
      "geometry": {
        "type": "Point",
        "coordinates": [
          -124.42849631956891,
          -52.10454524520195
        ]
      }
    },
    {
      "type": "Feature",
      "properties": {
        "norad_id": 33776,
        "name": "IRIDIUM 33 DEB",
        "group": "iridium-33-debris",
        "lat": 41.97824904336307,
        "lon": -101.15766834229902,
        "alt_km": 756.5180313546844,
        "timestamp": "2025-12-09T14:52:26.547297+00:00",
        "meta_object_name": "IRIDIUM 33 DEB",
        "meta_object_id": "1997-051P",
        "meta_epoch": "2025-12-09T07:49:29.994240",
        "meta_mean_motion": 14.38226618,
        "meta_eccentricity": 0.00139362,
        "meta_inclination": 86.4038,
        "meta_ra_of_asc_node": 82.2093,
        "meta_arg_of_pericenter": 201.8823,
        "meta_mean_anomaly": 216.3432,
        "meta_ephemeris_type": 0,
        "meta_classification_type": "U",
        "meta_norad_cat_id": 33776,
        "meta_element_set_no": 999,
        "meta_rev_at_epoch": 88033,
        "meta_bstar": 0.00060506512,
        "meta_mean_motion_dot": 1.859e-05,
        "meta_mean_motion_ddot": 0,
        "tle_line1": "1 33776U 97051P   25343.32604160  .00001859  00000+0  60507-3 0  9990",
        "tle_line2": "2 33776  86.4038  82.2093 0013936 201.8823 216.3432 14.38226618880331"
      },
      "geometry": {
        "type": "Point",
        "coordinates": [
          -101.15766834229902,
          41.97824904336307
        ]
      }
    },
    {
      "type": "Feature",
      "properties": {
        "norad_id": 33777,
        "name": "IRIDIUM 33 DEB",
        "group": "iridium-33-debris",
        "lat": 86.26475452787388,
        "lon": 140.59317451782158,
        "alt_km": 703.5955943614908,
        "timestamp": "2025-12-09T14:52:26.547310+00:00",
        "meta_object_name": "IRIDIUM 33 DEB",
        "meta_object_id": "1997-051Q",
        "meta_epoch": "2025-12-09T04:33:29.869056",
        "meta_mean_motion": 14.55571675,
        "meta_eccentricity": 0.00050771,
        "meta_inclination": 86.3783,
        "meta_ra_of_asc_node": 36.7474,
        "meta_arg_of_pericenter": 265.7419,
        "meta_mean_anomaly": 94.3208,
        "meta_ephemeris_type": 0,
        "meta_classification_type": "U",
        "meta_norad_cat_id": 33777,
        "meta_element_set_no": 999,
        "meta_rev_at_epoch": 88482,
        "meta_bstar": 0.0010985936,
        "meta_mean_motion_dot": 4.809e-05,
        "meta_mean_motion_ddot": 0,
        "tle_line1": "1 33777U 97051Q   25343.18992904  .00004809  00000+0  10986-2 0  9994",
        "tle_line2": "2 33777  86.3783  36.7474 0005077 265.7419  94.3208 14.55571675884820"
      },
      "geometry": {
        "type": "Point",
        "coordinates": [
          140.59317451782158,
          86.26475452787388
        ]
      }
    },
    {
      "type": "Feature",
      "properties": {
        "norad_id": 33850,
        "name": "IRIDIUM 33 DEB",
        "group": "iridium-33-debris",
        "lat": -25.454389042552855,
        "lon": -146.73364733395968,
        "alt_km": 750.2214212373474,
        "timestamp": "2025-12-09T14:52:26.547322+00:00",
        "meta_object_name": "IRIDIUM 33 DEB",
        "meta_object_id": "1997-051T",
        "meta_epoch": "2025-12-09T04:12:04.722624",
        "meta_mean_motion": 14.42134483,
        "meta_eccentricity": 0.00118428,
        "meta_inclination": 86.342,
        "meta_ra_of_asc_node": 31.7125,
        "meta_arg_of_pericenter": 172.0555,
        "meta_mean_anomaly": 246.0053,
        "meta_ephemeris_type": 0,
        "meta_classification_type": "U",
        "meta_norad_cat_id": 33850,
        "meta_element_set_no": 999,
        "meta_rev_at_epoch": 88101,
        "meta_bstar": 0.00048335793,
        "meta_mean_motion_dot": 1.61e-05,
        "meta_mean_motion_ddot": 0,
        "tle_line1": "1 33850U 97051T   25343.17505466  .00001610  00000+0  48336-3 0  9996",
        "tle_line2": "2 33850  86.3420  31.7125 0011842 172.0555 246.0053 14.42134483881016"
      },
      "geometry": {
        "type": "Point",
        "coordinates": [
          -146.73364733395968,
          -25.454389042552855
        ]
      }
    },
    {
      "type": "Feature",
      "properties": {
        "norad_id": 33853,
        "name": "IRIDIUM 33 DEB",
        "group": "iridium-33-debris",
        "lat": -6.168798665440488,
        "lon": -9.253892697787856,
        "alt_km": 945.7275904332118,
        "timestamp": "2025-12-09T14:52:26.547335+00:00",
        "meta_object_name": "IRIDIUM 33 DEB",
        "meta_object_id": "1997-051W",
        "meta_epoch": "2025-12-09T01:26:49.533792",
        "meta_mean_motion": 13.990264,
        "meta_eccentricity": 0.02069593,
        "meta_inclination": 85.9998,
        "meta_ra_of_asc_node": 351.4246,
        "meta_arg_of_pericenter": 247.2093,
        "meta_mean_anomaly": 168.4772,
        "meta_ephemeris_type": 0,
        "meta_classification_type": "U",
        "meta_norad_cat_id": 33853,
        "meta_element_set_no": 999,
        "meta_rev_at_epoch": 85294,
        "meta_bstar": 0.0024496433,
        "meta_mean_motion_dot": 4.27e-05,
        "meta_mean_motion_ddot": 0,
        "tle_line1": "1 33853U 97051W   25343.06029553  .00004270  00000+0  24496-2 0  9990",
        "tle_line2": "2 33853  85.9998 351.4246 0206959 247.2093 168.4772 13.99026400852942"
      },
      "geometry": {
        "type": "Point",
        "coordinates": [
          -9.253892697787856,
          -6.168798665440488
        ]
      }
    }
  ]
}